CZ-2C DEB               
1 67587U 26009D   26043.72813316  .00037855  00000+0  18024-2 0  9990
2 67587  97.6728 118.6045 0106678 128.9565 232.1232 15.14055437  4311
NAVSTAR 85 (USA 581)    
1 67588U 26017A   26043.55349914 -.00000016  00000+0  00000+0 0  9991
2 67588  55.0048  93.7569 0000856  60.0428 300.0334  2.00561410429115
STARLINK-36641          
1 67589U 26018A   26043.91670139 -.01952646  00000+0 -12929-1 0  9991
2 67589  97.2850 108.4536 0001663  83.7233 318.8683 15.78654242  3360
STARLINK-36376          
1 67590U 26018B   26043.91670139 -.00028513  00000+0 -14839-3 0  9993
2 67590  97.2854 108.4561 0001430  94.8938 314.9275 15.80846041  3414
STARLINK-36391          
1 67591U 26018C   26043.91670139  .00144018  00000+0  74170-3 0  9995
2 67591  97.2852 108.4599 0001654  63.8435 352.1825 15.80773218  3410
STARLINK-36603          
1 67592U 26018D   26043.91670139  .00011883  00000+0  62652-4 0  9992
2 67592  97.2854 108.4610 0001349  88.9268 331.3437 15.80830500  3371
STARLINK-36634          
1 67593U 26018E   26043.91670139 -.00015739  00000+0 -81529-4 0  9993
2 67593  97.2854 108.4632 0001235  94.0680 332.7558 15.80828933  3361
STARLINK-36638          
1 67594U 26018F   26043.91670139  .00018476  00000+0  96923-4 0  9997
2 67594  97.2853 108.4658 0001365  82.6249 350.4900 15.80831390  3366
STARLINK-36628          
1 67595U 26018G   26043.91670139 -.00239745  00000+0 -12744-2 0  9991
2 67595  97.2856 108.4680 0001416  82.7778 355.0148 15.81004028  3366
STARLINK-36629          
1 67596U 26018H   26043.91670139 -.00596413  00000+0 -42110-2 0  9990
2 67596  97.2853 108.4663 0001421  86.2940 347.1750 15.75581657  3363
STARLINK-36384          
1 67597U 26018J   26043.91670139 -.00010978  00000+0 -56577-4 0  9992
2 67597  97.2850 108.4723 0001211  79.4456  10.4319 15.80841546  3421
STARLINK-36358          
1 67598U 26018K   26043.91670139 -.01982257  00000+0 -11892-1 0  9990
2 67598  97.2852 108.4735 0001928  78.0437  16.1469 15.80853548  3419
