CCSDS_OMM_VERS = 2.0
CREATION_DATE  = 
ORIGINATOR     = 

OBJECT_NAME    = CZ-2C DEB
OBJECT_ID      = 2026-009D
CENTER_NAME    = EARTH
REF_FRAME      = TEME
TIME_SYSTEM    = UTC
MEAN_ELEMENT_THEORY = SGP/SGP4

EPOCH          = 2026-02-12T17:28:30.705024
MEAN_MOTION    = 15.14055437
ECCENTRICITY   = .01066786
INCLINATION    = 97.6728
RA_OF_ASC_NODE = 118.6045
ARG_OF_PERICENTER = 128.9565
MEAN_ANOMALY   = 232.1232

EPHEMERIS_TYPE = 0
CLASSIFICATION_TYPE = U
NORAD_CAT_ID   = 67587
ELEMENT_SET_NO = 999
REV_AT_EPOCH   = 431
BSTAR          = .18023904E-2
MEAN_MOTION_DOT = .37855E-3
MEAN_MOTION_DDOT = 0

CCSDS_OMM_VERS = 2.0
CREATION_DATE  = 
ORIGINATOR     = 

OBJECT_NAME    = NAVSTAR 85 (USA 581)
OBJECT_ID      = 2026-017A
CENTER_NAME    = EARTH
REF_FRAME      = TEME
TIME_SYSTEM    = UTC
MEAN_ELEMENT_THEORY = SGP/SGP4

EPOCH          = 2026-02-12T13:17:02.325696
MEAN_MOTION    = 2.00561410
ECCENTRICITY   = .00008563
INCLINATION    = 55.0048
RA_OF_ASC_NODE = 93.7569
ARG_OF_PERICENTER = 60.0428
MEAN_ANOMALY   = 300.0334

EPHEMERIS_TYPE = 0
CLASSIFICATION_TYPE = U
NORAD_CAT_ID   = 67588
ELEMENT_SET_NO = 999
REV_AT_EPOCH   = 42911
BSTAR          = 0
MEAN_MOTION_DOT = -.16E-6
MEAN_MOTION_DDOT = 0

CCSDS_OMM_VERS = 2.0
CREATION_DATE  = 
ORIGINATOR     = 

OBJECT_NAME    = STARLINK-36641
OBJECT_ID      = 2026-018A
CENTER_NAME    = EARTH
REF_FRAME      = TEME
TIME_SYSTEM    = UTC
MEAN_ELEMENT_THEORY = SGP/SGP4

EPOCH          = 2026-02-12T22:00:03.000096
MEAN_MOTION    = 15.78654242
ECCENTRICITY   = .00016639
INCLINATION    = 97.2850
RA_OF_ASC_NODE = 108.4536
ARG_OF_PERICENTER = 83.7233
MEAN_ANOMALY   = 318.8683

EPHEMERIS_TYPE = 0
CLASSIFICATION_TYPE = U
NORAD_CAT_ID   = 67589
ELEMENT_SET_NO = 999
REV_AT_EPOCH   = 336
BSTAR          = -.12928508E-1
MEAN_MOTION_DOT = -.1952646E-1
MEAN_MOTION_DDOT = 0

CCSDS_OMM_VERS = 2.0
CREATION_DATE  = 
ORIGINATOR     = 

OBJECT_NAME    = STARLINK-36376
OBJECT_ID      = 2026-018B
CENTER_NAME    = EARTH
REF_FRAME      = TEME
TIME_SYSTEM    = UTC
MEAN_ELEMENT_THEORY = SGP/SGP4

EPOCH          = 2026-02-12T22:00:03.000096
MEAN_MOTION    = 15.80846041
ECCENTRICITY   = .00014308
INCLINATION    = 97.2854
RA_OF_ASC_NODE = 108.4561
ARG_OF_PERICENTER = 94.8938
MEAN_ANOMALY   = 314.9275

EPHEMERIS_TYPE = 0
CLASSIFICATION_TYPE = U
NORAD_CAT_ID   = 67590
ELEMENT_SET_NO = 999
REV_AT_EPOCH   = 341
BSTAR          = -.14839462E-3
MEAN_MOTION_DOT = -.28513E-3
MEAN_MOTION_DDOT = 0

CCSDS_OMM_VERS = 2.0
CREATION_DATE  = 
ORIGINATOR     = 

OBJECT_NAME    = STARLINK-36391
OBJECT_ID      = 2026-018C
CENTER_NAME    = EARTH
REF_FRAME      = TEME
TIME_SYSTEM    = UTC
MEAN_ELEMENT_THEORY = SGP/SGP4

EPOCH          = 2026-02-12T22:00:03.000096
MEAN_MOTION    = 15.80773218
ECCENTRICITY   = .00016542
INCLINATION    = 97.2852
RA_OF_ASC_NODE = 108.4599
ARG_OF_PERICENTER = 63.8435
MEAN_ANOMALY   = 352.1825

EPHEMERIS_TYPE = 0
CLASSIFICATION_TYPE = U
NORAD_CAT_ID   = 67591
ELEMENT_SET_NO = 999
REV_AT_EPOCH   = 341
BSTAR          = .74169994E-3
MEAN_MOTION_DOT = .144018E-2
MEAN_MOTION_DDOT = 0

CCSDS_OMM_VERS = 2.0
CREATION_DATE  = 
ORIGINATOR     = 

OBJECT_NAME    = STARLINK-36603
OBJECT_ID      = 2026-018D
CENTER_NAME    = EARTH
REF_FRAME      = TEME
TIME_SYSTEM    = UTC
MEAN_ELEMENT_THEORY = SGP/SGP4

EPOCH          = 2026-02-12T22:00:03.000096
MEAN_MOTION    = 15.80830500
ECCENTRICITY   = .00013498
INCLINATION    = 97.2854
RA_OF_ASC_NODE = 108.4610
ARG_OF_PERICENTER = 88.9268
MEAN_ANOMALY   = 331.3437

EPHEMERIS_TYPE = 0
CLASSIFICATION_TYPE = U
NORAD_CAT_ID   = 67592
ELEMENT_SET_NO = 999
REV_AT_EPOCH   = 337
BSTAR          = .62652311E-4
MEAN_MOTION_DOT = .11883E-3
MEAN_MOTION_DDOT = 0

CCSDS_OMM_VERS = 2.0
CREATION_DATE  = 
ORIGINATOR     = 

OBJECT_NAME    = STARLINK-36634
OBJECT_ID      = 2026-018E
CENTER_NAME    = EARTH
REF_FRAME      = TEME
TIME_SYSTEM    = UTC
MEAN_ELEMENT_THEORY = SGP/SGP4

EPOCH          = 2026-02-12T22:00:03.000096
MEAN_MOTION    = 15.80828933
ECCENTRICITY   = .00012354
INCLINATION    = 97.2854
RA_OF_ASC_NODE = 108.4632
ARG_OF_PERICENTER = 94.0680
MEAN_ANOMALY   = 332.7558

EPHEMERIS_TYPE = 0
CLASSIFICATION_TYPE = U
NORAD_CAT_ID   = 67593
ELEMENT_SET_NO = 999
REV_AT_EPOCH   = 336
BSTAR          = -.8152933E-4
MEAN_MOTION_DOT = -.15739E-3
MEAN_MOTION_DDOT = 0

CCSDS_OMM_VERS = 2.0
CREATION_DATE  = 
ORIGINATOR     = 

OBJECT_NAME    = STARLINK-36638
OBJECT_ID      = 2026-018F
CENTER_NAME    = EARTH
REF_FRAME      = TEME
TIME_SYSTEM    = UTC
MEAN_ELEMENT_THEORY = SGP/SGP4

EPOCH          = 2026-02-12T22:00:03.000096
MEAN_MOTION    = 15.80831390
ECCENTRICITY   = .00013651
INCLINATION    = 97.2853
RA_OF_ASC_NODE = 108.4658
ARG_OF_PERICENTER = 82.6249
MEAN_ANOMALY   = 350.4900

EPHEMERIS_TYPE = 0
CLASSIFICATION_TYPE = U
NORAD_CAT_ID   = 67594
ELEMENT_SET_NO = 999
REV_AT_EPOCH   = 336
BSTAR          = .96922772E-4
MEAN_MOTION_DOT = .18476E-3
MEAN_MOTION_DDOT = 0

CCSDS_OMM_VERS = 2.0
CREATION_DATE  = 
ORIGINATOR     = 

OBJECT_NAME    = STARLINK-36628
OBJECT_ID      = 2026-018G
CENTER_NAME    = EARTH
REF_FRAME      = TEME
TIME_SYSTEM    = UTC
MEAN_ELEMENT_THEORY = SGP/SGP4

EPOCH          = 2026-02-12T22:00:03.000096
MEAN_MOTION    = 15.81004028
ECCENTRICITY   = .00014169
INCLINATION    = 97.2856
RA_OF_ASC_NODE = 108.4680
ARG_OF_PERICENTER = 82.7778
MEAN_ANOMALY   = 355.0148

EPHEMERIS_TYPE = 0
CLASSIFICATION_TYPE = U
NORAD_CAT_ID   = 67595
ELEMENT_SET_NO = 999
REV_AT_EPOCH   = 336
BSTAR          = -.12744475E-2
MEAN_MOTION_DOT = -.239745E-2
MEAN_MOTION_DDOT = 0

CCSDS_OMM_VERS = 2.0
CREATION_DATE  = 
ORIGINATOR     = 

OBJECT_NAME    = STARLINK-36629
OBJECT_ID      = 2026-018H
CENTER_NAME    = EARTH
REF_FRAME      = TEME
TIME_SYSTEM    = UTC
MEAN_ELEMENT_THEORY = SGP/SGP4

EPOCH          = 2026-02-12T22:00:03.000096
MEAN_MOTION    = 15.75581657
ECCENTRICITY   = .00014219
INCLINATION    = 97.2853
RA_OF_ASC_NODE = 108.4663
ARG_OF_PERICENTER = 86.2940
MEAN_ANOMALY   = 347.1750

EPHEMERIS_TYPE = 0
CLASSIFICATION_TYPE = U
NORAD_CAT_ID   = 67596
ELEMENT_SET_NO = 999
REV_AT_EPOCH   = 336
BSTAR          = -.4211042E-2
MEAN_MOTION_DOT = -.596413E-2
MEAN_MOTION_DDOT = 0

CCSDS_OMM_VERS = 2.0
CREATION_DATE  = 
ORIGINATOR     = 

OBJECT_NAME    = STARLINK-36384
OBJECT_ID      = 2026-018J
CENTER_NAME    = EARTH
REF_FRAME      = TEME
TIME_SYSTEM    = UTC
MEAN_ELEMENT_THEORY = SGP/SGP4

EPOCH          = 2026-02-12T22:00:03.000096
MEAN_MOTION    = 15.80841546
ECCENTRICITY   = .00012112
INCLINATION    = 97.2850
RA_OF_ASC_NODE = 108.4723
ARG_OF_PERICENTER = 79.4456
MEAN_ANOMALY   = 10.4319

EPHEMERIS_TYPE = 0
CLASSIFICATION_TYPE = U
NORAD_CAT_ID   = 67597
ELEMENT_SET_NO = 999
REV_AT_EPOCH   = 342
BSTAR          = -.5657657E-4
MEAN_MOTION_DOT = -.10978E-3
MEAN_MOTION_DDOT = 0

CCSDS_OMM_VERS = 2.0
CREATION_DATE  = 
ORIGINATOR     = 

OBJECT_NAME    = STARLINK-36358
OBJECT_ID      = 2026-018K
CENTER_NAME    = EARTH
REF_FRAME      = TEME
TIME_SYSTEM    = UTC
MEAN_ELEMENT_THEORY = SGP/SGP4

EPOCH          = 2026-02-12T22:00:03.000096
MEAN_MOTION    = 15.80853548
ECCENTRICITY   = .00019289
INCLINATION    = 97.2852
RA_OF_ASC_NODE = 108.4735
ARG_OF_PERICENTER = 78.0437
MEAN_ANOMALY   = 16.1469

EPHEMERIS_TYPE = 0
CLASSIFICATION_TYPE = U
NORAD_CAT_ID   = 67598
ELEMENT_SET_NO = 999
REV_AT_EPOCH   = 341
BSTAR          = -.11891896E-1
MEAN_MOTION_DOT = -.1982257E-1
MEAN_MOTION_DDOT = 0

